NORAD_CAT_ID,OBJECT_NAME,OBJECT_TYPE,EPOCH,MEAN_MOTION,ECCENTRICITY,INCLINATION,RA_OF_ASC_NODE,ARG_OF_PERICENTER,MEAN_ANOMALY,BSTAR,MEAN_MOTION_DOT,MEAN_MOTION_DDOT,TLE_LINE0,TLE_LINE1,TLE_LINE2,SEMIMAJOR_AXIS,PERIOD,APOGEE,PERIGEE,DECAYED
55319.0,STARLINK-5196,PAYLOAD,2023-04-24 02:43:53,15.69939884,0.000289,69.9976,162.9818,263.4346,96.6521,2.5906e-05,2.905e-05,0.0,0 STARLINK-5196,1 55319U 23010BC  23114.11381023  .00002905  00000-0  25906-4 0  9991,2 55319  69.9976 162.9818 0002890 263.4346  96.6521 15.69939884 16540,6737.206,91.723,361.018,357.124,0.0
55319.0,STARLINK-5196,PAYLOAD,2023-04-25 12:22:31,15.69877379,0.0002753,69.9986,159.0429,248.641,111.4492,-5.3478e-05,-6.624e-05,0.0,0 STARLINK-5196,1 55319U 23010BC  23115.51564345 -.00006624  00000-0 -53478-4 0  9995,2 55319  69.9986 159.0429 0002753 248.6410 111.4492 15.69877379 15576,6737.385,91.727,361.105,357.395,0.0
55319.0,STARLINK-5196,PAYLOAD,2023-04-26 11:18:42,15.69952016,0.0002948,70.0006,156.36,269.7597,90.3261,6.5458e-05,7.674e-05,0.0,0 STARLINK-5196,1 55319U 23010BC  23116.47132343  .00007674  00000-0  65458-4 0  9995,2 55319  70.0006 156.3600 0002948 269.7597  90.3261 15.69952016 16919,6737.171,91.723,361.022,357.05,0.0
55319.0,STARLINK-5196,PAYLOAD,2023-04-27 04:08:00,15.69904036,0.0002835,69.9974,154.3842,269.968,90.1191,5.776e-05,6.732e-05,0.0,0 STARLINK-5196,1 55319U 23010BC  23117.17223244  .00006732  00000-0  57760-4 0  9995,2 55319  69.9974 154.3842 0002835 269.9680  90.1191 15.69904036 15835,6737.309,91.725,361.084,357.264,0.0
55319.0,STARLINK-5196,PAYLOAD,2023-04-27 13:18:32,15.6989451,0.0002687,69.9982,153.31,285.6814,74.4085,4.1616e-05,4.788e-05,0.0,0 STARLINK-5196,1 55319U 23010BC  23117.55454737  .00004788  00000-0  41616-4 0  9992,2 55319  69.9982 153.3100 0002687 285.6814  74.4085 15.69894510 17080,6737.336,91.726,361.011,357.39,0.0
55319.0,STARLINK-5196,PAYLOAD,2023-04-28 04:36:03,15.69935278,0.000322,69.998,151.5183,275.182,84.9008,-3.3988e-05,-4.299e-05,0.0,0 STARLINK-5196,1 55319U 23010BC  23118.19170414 -.00004299  00000-0 -33988-4 0  9992,2 55319  69.9980 151.5183 0003220 275.1820  84.9008 15.69935278 15990,6737.219,91.724,361.254,356.915,0.0
55319.0,STARLINK-5196,PAYLOAD,2023-04-28 12:14:48,15.6993085,0.0002991,69.9972,150.6218,274.8527,85.2328,-4.8212e-05,-6.007e-05,0.0,0 STARLINK-5196,1 55319U 23010BC  23118.51028885 -.00006007  00000-0 -48212-4 0  9997,2 55319  69.9972 150.6218 0002991 274.8527  85.2328 15.69930850 17233,6737.232,91.724,361.112,357.082,0.0
55319.0,STARLINK-5196,PAYLOAD,2023-04-29 05:04:04,15.69923499,0.0003296,69.9961,148.6487,269.3913,90.6905,3.0151e-06,1.5e-06,0.0,0 STARLINK-5196,1 55319U 23010BC  23119.21116343  .00000150  00000-0  30151-5 0  9997,2 55319  69.9961 148.6487 0003296 269.3913  90.6905 15.69923499 16155,6737.253,91.724,361.338,356.897,0.0
55319.0,STARLINK-5196,PAYLOAD,2023-04-29 11:11:04,15.69927229,0.0003045,69.9962,147.9321,273.3367,86.7481,7.4298e-06,6.81e-06,0.0,0 STARLINK-5196,1 55319U 23010BC  23119.46602751  .00000681  00000-0  74298-5 0  9996,2 55319  69.9962 147.9321 0003045 273.3367  86.7481 15.69927229 17381,6737.242,91.724,361.159,357.056,0.0
55319.0,STARLINK-5196,PAYLOAD,2023-04-30 11:39:06,15.69924209,0.0003571,69.9952,145.0647,276.7269,83.352,4.7583e-06,3.59e-06,0.0,0 STARLINK-5196,1 55319U 23010BC  23120.48549609  .00000359  00000-0  47583-5 0  9991,2 55319  69.9952 145.0647 0003571 276.7269  83.3520 15.69924209 16350,6737.251,91.724,361.522,356.71,0.0
55319.0,STARLINK-5196,PAYLOAD,2023-05-01 12:07:09,15.699262,0.0003028,69.9966,142.2004,274.4841,85.6008,1.5994e-06,-2e-07,0.0,0 STARLINK-5196,1 55319U 23010BC  23121.50496597 -.00000020  00000-0  15994-5 0  9999,2 55319  69.9966 142.2004 0003028 274.4841  85.6008 15.69926200 16516,6737.245,91.724,361.15,357.07,0.0
55319.0,STARLINK-5196,PAYLOAD,2023-05-02 04:56:26,15.69916468,0.0003634,69.998,140.232,278.3598,81.7185,-5.7533e-06,-9.04e-06,0.0,0 STARLINK-5196,1 55319U 23010BC  23122.20585674 -.00000904  00000-0 -57533-5 0  9999,2 55319  69.9980 140.2320 0003634 278.3598  81.7185 15.69916468 16626,6737.273,91.725,361.586,356.69,0.0
55319.0,STARLINK-5196,PAYLOAD,2023-05-02 12:35:12,15.69908904,0.0002191,69.9986,139.336,276.2492,83.8454,-1.1664e-05,-1.613e-05,0.0,0 STARLINK-5196,1 55319U 23010BC  23122.52444826 -.00001613  00000-0 -11664-4 0  9999,2 55319  69.9986 139.3360 0002191 276.2492  83.8454 15.69908904 17867,6737.295,91.725,360.636,357.683,0.0
55319.0,STARLINK-5196,PAYLOAD,2023-05-02 18:42:08,15.69968611,0.0002613,69.9998,138.621,274.1541,85.9356,1.5753e-05,1.685e-05,0.0,0 STARLINK-5196,1 55319U 23010BC  23122.77926910  .00001685  00000-0  15753-4 0  9995,2 55319  69.9998 138.6210 0002613 274.1541  85.9356 15.69968611 16715,6737.124,91.722,360.749,357.228,0.0
55319.0,STARLINK-5196,PAYLOAD,2023-05-03 03:52:42,15.69920913,0.000339,69.9968,137.5426,268.7562,91.3245,9.3972e-07,-1e-06,0.0,0 STARLINK-5196,1 55319U 23010BC  23123.16160441 -.00000100  00000-0  93972-6 0  9991,2 55319  69.9968 137.5426 0003390 268.7562  91.3245 15.69920913 16771,6737.26,91.724,361.409,356.841,0.0
55319.0,STARLINK-5196,PAYLOAD,2023-05-03 09:59:42,15.69924954,0.0003066,69.9975,136.8271,258.9857,101.0994,7.4733e-06,6.86e-06,0.0,0 STARLINK-5196,1 55319U 23010BC  23123.41646740  .00000686  00000-0  74733-5 0  9991,2 55319  69.9975 136.8271 0003066 258.9857 101.0994 15.69924954 18004,6737.249,91.724,361.179,357.048,0.0
55319.0,STARLINK-5196,PAYLOAD,2023-05-04 02:48:58,15.69926094,0.000223,70.0004,134.8566,239.2335,120.8642,2.3931e-05,2.666e-05,0.0,0 STARLINK-5196,1 55319U 23010BC  23124.11734719  .00002666  00000-0  23931-4 0  9996,2 55319  70.0004 134.8566 0002230 239.2335 120.8642 15.69926094 16925,6737.245,91.724,360.613,357.608,0.0
55319.0,STARLINK-5196,PAYLOAD,2023-05-04 10:27:45,15.69916752,0.0002965,69.9979,133.9621,265.6433,94.4423,1.1289e-05,1.145e-05,0.0,0 STARLINK-5196,1 55319U 23010BC  23124.43593954  .00001145  00000-0  11289-4 0  9999,2 55319  69.9979 133.9621 0002965 265.6433  94.4423 15.69916752 16970,6737.272,91.725,361.135,357.14,0.0
55319.0,STARLINK-5196,PAYLOAD,2023-05-05 10:55:47,15.69920918,0.0003291,69.9977,131.0953,267.4759,92.606,4.0212e-06,2.71e-06,0.0,0 STARLINK-5196,1 55319U 23010BC  23125.45540668  .00000271  00000-0  40212-5 0  9994,2 55319  69.9977 131.0953 0003291 267.4759  92.6060 15.69920918 17134,6737.26,91.724,361.342,356.908,0.0
55319.0,STARLINK-5196,PAYLOAD,2023-05-06 09:52:03,15.69934848,0.0003104,69.9972,128.4049,261.6412,98.4431,-6.7644e-06,-1.026e-05,0.0,0 STARLINK-5196,1 55319U 23010BC  23126.41115047 -.00001026  00000-0 -67644-5 0  9999,2 55319  69.9972 128.4049 0003104 261.6412  98.4431 15.69934848 18471,6737.22,91.724,361.177,356.994,0.0
55319.0,STARLINK-5196,PAYLOAD,2023-05-07 02:41:19,15.69928776,0.0002436,69.9981,126.4363,264.6717,95.4201,1.7451e-05,1.887e-05,0.0,0 STARLINK-5196,1 55319U 23010BC  23127.11203372  .00001887  00000-0  17451-4 0  9999,2 55319  69.9981 126.4363 0002436 264.6717  95.4201 15.69928776 17391,6737.238,91.724,360.744,357.462,0.0
55319.0,STARLINK-5196,PAYLOAD,2023-05-07 08:48:21,15.69908412,0.0003116,69.9986,125.718,259.8956,100.1888,2.4411e-06,8.1e-07,0.0,0 STARLINK-5196,1 55319U 23010BC  23127.36691542  .00000081  00000-0  24411-5 0  9996,2 55319  69.9986 125.7180 0003116 259.8956 100.1888 15.69908412 17437,6737.296,91.725,361.26,357.062,0.0
55319.0,STARLINK-5196,PAYLOAD,2023-05-08 03:09:22,15.69918085,0.0003339,69.9993,123.5718,262.3663,97.7154,1.6411e-05,1.76e-05,0.0,0 STARLINK-5196,1 55319U 23010BC  23128.13150820  .00001760  00000-0  16411-4 0  9996,2 55319  69.9993 123.5718 0003339 262.3663  97.7154 15.69918085 17556,6737.268,91.725,361.383,356.884,0.0
55319.0,STARLINK-5196,PAYLOAD,2023-05-08 16:55:08,15.69927081,0.0002635,69.9981,121.9573,265.6847,94.4048,-1.2337e-06,-3.61e-06,0.0,0 STARLINK-5196,1 55319U 23010BC  23128.70495858 -.00000361  00000-0 -12337-5 0  9994,2 55319  69.9981 121.9573 0002635 265.6847  94.4048 15.69927081 18836,6737.243,91.724,360.883,357.332,0.0
55319.0,STARLINK-5196,PAYLOAD,2023-05-09 11:16:09,15.69931172,0.0003091,69.9982,119.8086,259.8525,100.2322,1.9905e-05,2.182e-05,0.0,0 STARLINK-5196,1 55319U 23010BC  23129.46955291  .00002182  00000-0  19905-4 0  9998,2 55319  69.9982 119.8086 0003091 259.8525 100.2322 15.69931172 18957,6737.231,91.724,361.178,357.013,0.0
55319.0,STARLINK-5196,PAYLOAD,2023-05-10 08:40:41,15.6993471,0.0003222,69.9974,117.3009,259.931,100.1522,1.0145e-05,1.008e-05,0.0,0 STARLINK-5196,1 55319U 23010BC  23130.36158807  .00001008  00000-0  10145-4 0  9990,2 55319  69.9974 117.3009 0003222 259.9310 100.1522 15.69934710 19093,6737.221,91.724,361.257,356.915,0.0
55319.0,STARLINK-5196,PAYLOAD,2023-05-11 01:29:58,15.69925244,0.0003037,69.9997,115.33,261.858,98.2271,1.9069e-05,2.081e-05,0.0,0 STARLINK-5196,1 55319U 23010BC  23131.06247728  .00002081  00000-0  19069-4 0  9995,2 55319  69.9997 115.3300 0003037 261.8580  98.2271 15.69925244 18016,6737.248,91.724,361.159,357.067,0.0
55319.0,STARLINK-5196,PAYLOAD,2023-05-11 09:08:44,15.69906745,0.0003325,69.9994,114.4345,272.0687,88.0128,-3.5234e-05,-4.444e-05,0.0,0 STARLINK-5196,1 55319U 23010BC  23131.38106837 -.00004444  00000-0 -35234-4 0  9994,2 55319  69.9994 114.4345 0003325 272.0687  88.0128 15.69906745 19254,6737.301,91.725,361.406,356.926,0.0
55319.0,STARLINK-5196,PAYLOAD,2023-05-12 00:26:15,15.6992009,0.0003615,69.9966,112.6409,269.8165,90.2617,-6.5591e-07,-2.92e-06,0.0,0 STARLINK-5196,1 55319U 23010BC  23132.01823507 -.00000292  00000-0 -65591-6 0  9993,2 55319  69.9966 112.6409 0003615 269.8165  90.2617 15.69920090 18167,6737.263,91.724,361.563,356.692,0.0
55319.0,STARLINK-5196,PAYLOAD,2023-05-12 01:58:00,15.69920965,0.0003616,69.9968,112.4617,272.0396,88.0385,4.8461e-07,-1.55e-06,0.0,0 STARLINK-5196,1 55319U 23010BC  23132.08195150 -.00000155  00000-0  48461-6 0  9990,2 55319  69.9968 112.4617 0003616 272.0396  88.0385 15.69920965 19362,6737.26,91.724,361.561,356.689,0.0
